[{"OBJECT_NAME":"LAPAN-A3","OBJECT_ID":"2016-040E","EPOCH":"2026-03-09T23:01:57.724896","MEAN_MOTION":15.3238951,"ECCENTRICITY":0.00109839,"INCLINATION":97.1488,"RA_OF_ASC_NODE":68.4254,"ARG_OF_PERICENTER":22.062,"MEAN_ANOMALY":338.1093,"EPHEMERIS_TYPE":0,"CLASSIFICATION_TYPE":"U","NORAD_CAT_ID":41603,"ELEMENT_SET_NO":999,"REV_AT_EPOCH":53961,"BSTAR":0.00017567445,"MEAN_MOTION_DOT":5.428e-5,"MEAN_MOTION_DDOT":0},{"OBJECT_NAME":"STARLINK-2479","OBJECT_ID":"2021-027AW","EPOCH":"2026-03-09T13:41:16.573344","MEAN_MOTION":15.30207688,"ECCENTRICITY":0.000133,"INCLINATION":53.16,"RA_OF_ASC_NODE":166.0339,"ARG_OF_PERICENTER":102.6554,"MEAN_ANOMALY":257.4596,"EPHEMERIS_TYPE":0,"CLASSIFICATION_TYPE":"U","NORAD_CAT_ID":48136,"ELEMENT_SET_NO":999,"REV_AT_EPOCH":27249,"BSTAR":0.00017793,"MEAN_MOTION_DOT":4.915e-5,"MEAN_MOTION_DDOT":0}]
